LUR-1                   
1 60506U 24149AQ  26068.79566301  .00009121  00000+0  32985-3 0  9998
2 60506  97.3790 148.4255 0002777 309.1571  50.9421 15.28658648 86785
STARLINK-35787          
1 66978U 25288V   26068.25149283  .00024342  00000+0  89156-3 0  9993
2 66978  43.0028  25.6444 0001335 274.6201  85.4498 15.27565968 15226
